[{"OBJECT_NAME":"ONEWEB-0411","OBJECT_ID":"2022-012B","EPOCH":"2026-01-13T03:50:21.923808","MEAN_MOTION":13.10369987,"ECCENTRICITY":0.00013779,"INCLINATION":87.8775,"RA_OF_ASC_NODE":67.1683,"ARG_OF_PERICENTER":114.905,"MEAN_ANOMALY":245.2221,"EPHEMERIS_TYPE":0,"CLASSIFICATION_TYPE":"U","NORAD_CAT_ID":51623,"ELEMENT_SET_NO":999,"REV_AT_EPOCH":18898,"BSTAR":-0.0010662589,"MEAN_MOTION_DOT":-3.6e-6,"MEAN_MOTION_DDOT":0},{"OBJECT_NAME":"ONEWEB-0415","OBJECT_ID":"2022-012C","EPOCH":"2026-01-13T03:45:36.262944","MEAN_MOTION":13.10370599,"ECCENTRICITY":0.00015719,"INCLINATION":87.8774,"RA_OF_ASC_NODE":67.1713,"ARG_OF_PERICENTER":108.5316,"MEAN_ANOMALY":251.5982,"EPHEMERIS_TYPE":0,"CLASSIFICATION_TYPE":"U","NORAD_CAT_ID":51624,"ELEMENT_SET_NO":999,"REV_AT_EPOCH":18898,"BSTAR":-0.00064509293,"MEAN_MOTION_DOT":-2.13e-6,"MEAN_MOTION_DDOT":0},{"OBJECT_NAME":"ONEWEB-0416","OBJECT_ID":"2022-012D","EPOCH":"2026-01-13T04:02:19.640832","MEAN_MOTION":13.10372489,"ECCENTRICITY":0.00018169,"INCLINATION":87.8776,"RA_OF_ASC_NODE":67.1898,"ARG_OF_PERICENTER":115.523,"MEAN_ANOMALY":244.6085,"EPHEMERIS_TYPE":0,"CLASSIFICATION_TYPE":"U","NORAD_CAT_ID":51625,"ELEMENT_SET_NO":999,"REV_AT_EPOCH":18902,"BSTAR":-0.0017146527,"MEAN_MOTION_DOT":-5.86e-6,"MEAN_MOTION_DDOT":0},{"OBJECT_NAME":"ONEWEB-0422","OBJECT_ID":"2022-012E","EPOCH":"2026-01-13T07:37:22.914912","MEAN_MOTION":13.17649312,"ECCENTRICITY":0.00015429,"INCLINATION":87.9096,"RA_OF_ASC_NODE":36.6304,"ARG_OF_PERICENTER":70.9335,"MEAN_ANOMALY":289.1964,"EPHEMERIS_TYPE":0,"CLASSIFICATION_TYPE":"U","NORAD_CAT_ID":51626,"ELEMENT_SET_NO":999,"REV_AT_EPOCH":19341,"BSTAR":3.3005526e-5,"MEAN_MOTION_DOT":2.6e-7,"MEAN_MOTION_DDOT":0},{"OBJECT_NAME":"ONEWEB-0423","OBJECT_ID":"2022-012F","EPOCH":"2026-01-13T07:27:39.472992","MEAN_MOTION":13.17650254,"ECCENTRICITY":0.00018305,"INCLINATION":87.9094,"RA_OF_ASC_NODE":36.6413,"ARG_OF_PERICENTER":89.4376,"MEAN_ANOMALY":270.6965,"EPHEMERIS_TYPE":0,"CLASSIFICATION_TYPE":"U","NORAD_CAT_ID":51627,"ELEMENT_SET_NO":999,"REV_AT_EPOCH":19330,"BSTAR":-0.0002766758,"MEAN_MOTION_DOT":-9.5e-7,"MEAN_MOTION_DDOT":0},{"OBJECT_NAME":"ONEWEB-0425","OBJECT_ID":"2022-012G","EPOCH":"2026-01-13T04:16:40.351584","MEAN_MOTION":13.10375408,"ECCENTRICITY":0.0002166,"INCLINATION":87.8787,"RA_OF_ASC_NODE":67.1618,"ARG_OF_PERICENTER":100.2352,"MEAN_ANOMALY":259.902,"EPHEMERIS_TYPE":0,"CLASSIFICATION_TYPE":"U","NORAD_CAT_ID":51628,"ELEMENT_SET_NO":999,"REV_AT_EPOCH":18902,"BSTAR":-0.0014610309,"MEAN_MOTION_DOT":-4.97e-6,"MEAN_MOTION_DDOT":0},{"OBJECT_NAME":"ONEWEB-0428","OBJECT_ID":"2022-012H","EPOCH":"2026-01-13T03:47:59.510688","MEAN_MOTION":13.10370645,"ECCENTRICITY":0.00017552,"INCLINATION":87.8775,"RA_OF_ASC_NODE":67.1819,"ARG_OF_PERICENTER":98.6282,"MEAN_ANOMALY":261.5045,"EPHEMERIS_TYPE":0,"CLASSIFICATION_TYPE":"U","NORAD_CAT_ID":51629,"ELEMENT_SET_NO":999,"REV_AT_EPOCH":18898,"BSTAR":-0.0010035304,"MEAN_MOTION_DOT":-3.38e-6,"MEAN_MOTION_DDOT":0},{"OBJECT_NAME":"ONEWEB-0431","OBJECT_ID":"2022-012J","EPOCH":"2026-01-13T04:54:44.328672","MEAN_MOTION":13.10374773,"ECCENTRICITY":0.00012032,"INCLINATION":87.8786,"RA_OF_ASC_NODE":67.1544,"ARG_OF_PERICENTER":111.4344,"MEAN_ANOMALY":248.6912,"EPHEMERIS_TYPE":0,"CLASSIFICATION_TYPE":"U","NORAD_CAT_ID":51630,"ELEMENT_SET_NO":999,"REV_AT_EPOCH":18904,"BSTAR":0.001953572,"MEAN_MOTION_DOT":6.95e-6,"MEAN_MOTION_DDOT":0},{"OBJECT_NAME":"ONEWEB-0434","OBJECT_ID":"2022-012K","EPOCH":"2026-01-13T04:21:39.452832","MEAN_MOTION":13.10375635,"ECCENTRICITY":0.00024664,"INCLINATION":87.8778,"RA_OF_ASC_NODE":67.1926,"ARG_OF_PERICENTER":98.264,"MEAN_ANOMALY":261.8767,"EPHEMERIS_TYPE":0,"CLASSIFICATION_TYPE":"U","NORAD_CAT_ID":51631,"ELEMENT_SET_NO":999,"REV_AT_EPOCH":18902,"BSTAR":-0.0011588479,"MEAN_MOTION_DOT":-3.92e-6,"MEAN_MOTION_DDOT":0},{"OBJECT_NAME":"ONEWEB-0435","OBJECT_ID":"2022-012L","EPOCH":"2026-01-13T04:33:24.925248","MEAN_MOTION":13.10376185,"ECCENTRICITY":0.00015867,"INCLINATION":87.878,"RA_OF_ASC_NODE":67.181,"ARG_OF_PERICENTER":87.643,"MEAN_ANOMALY":272.4879,"EPHEMERIS_TYPE":0,"CLASSIFICATION_TYPE":"U","NORAD_CAT_ID":51632,"ELEMENT_SET_NO":999,"REV_AT_EPOCH":18901,"BSTAR":3.0094654e-5,"MEAN_MOTION_DOT":2.3e-7,"MEAN_MOTION_DDOT":0},{"OBJECT_NAME":"ONEWEB-0436","OBJECT_ID":"2022-012M","EPOCH":"2026-01-13T07:15:30.333888","MEAN_MOTION":13.17650346,"ECCENTRICITY":0.00015952,"INCLINATION":87.9095,"RA_OF_ASC_NODE":36.6214,"ARG_OF_PERICENTER":89.1899,"MEAN_ANOMALY":270.9416,"EPHEMERIS_TYPE":0,"CLASSIFICATION_TYPE":"U","NORAD_CAT_ID":51633,"ELEMENT_SET_NO":999,"REV_AT_EPOCH":19328,"BSTAR":-7.9978643e-5,"MEAN_MOTION_DOT":-1.8e-7,"MEAN_MOTION_DDOT":0},{"OBJECT_NAME":"ONEWEB-0438","OBJECT_ID":"2022-012N","EPOCH":"2026-01-13T04:09:29.986272","MEAN_MOTION":13.10374146,"ECCENTRICITY":0.0001991,"INCLINATION":87.8778,"RA_OF_ASC_NODE":67.1853,"ARG_OF_PERICENTER":101.2467,"MEAN_ANOMALY":258.8884,"EPHEMERIS_TYPE":0,"CLASSIFICATION_TYPE":"U","NORAD_CAT_ID":51634,"ELEMENT_SET_NO":999,"REV_AT_EPOCH":18904,"BSTAR":-0.0019351722,"MEAN_MOTION_DOT":-6.63e-6,"MEAN_MOTION_DDOT":0},{"OBJECT_NAME":"ONEWEB-0439","OBJECT_ID":"2022-012P","EPOCH":"2026-01-13T04:14:16.741824","MEAN_MOTION":13.10374636,"ECCENTRICITY":0.00018137,"INCLINATION":87.8779,"RA_OF_ASC_NODE":67.1736,"ARG_OF_PERICENTER":97.0727,"MEAN_ANOMALY":263.0606,"EPHEMERIS_TYPE":0,"CLASSIFICATION_TYPE":"U","NORAD_CAT_ID":51635,"ELEMENT_SET_NO":999,"REV_AT_EPOCH":18902,"BSTAR":-0.0016690272,"MEAN_MOTION_DOT":-5.7e-6,"MEAN_MOTION_DDOT":0},{"OBJECT_NAME":"ONEWEB-0442","OBJECT_ID":"2022-012Q","EPOCH":"2026-01-13T07:04:34.847328","MEAN_MOTION":13.17656959,"ECCENTRICITY":0.00023527,"INCLINATION":87.9085,"RA_OF_ASC_NODE":36.6677,"ARG_OF_PERICENTER":102.3446,"MEAN_ANOMALY":257.7949,"EPHEMERIS_TYPE":0,"CLASSIFICATION_TYPE":"U","NORAD_CAT_ID":51636,"ELEMENT_SET_NO":999,"REV_AT_EPOCH":19327,"BSTAR":-0.00015784062,"MEAN_MOTION_DOT":-4.8e-7,"MEAN_MOTION_DDOT":0},{"OBJECT_NAME":"ONEWEB-0443","OBJECT_ID":"2022-012R","EPOCH":"2026-01-13T02:04:28.566336","MEAN_MOTION":13.17649744,"ECCENTRICITY":0.00020852,"INCLINATION":87.908,"RA_OF_ASC_NODE":36.713,"ARG_OF_PERICENTER":88.4663,"MEAN_ANOMALY":271.6707,"EPHEMERIS_TYPE":0,"CLASSIFICATION_TYPE":"U","NORAD_CAT_ID":51637,"ELEMENT_SET_NO":999,"REV_AT_EPOCH":19329,"BSTAR":-2.0655423e-5,"MEAN_MOTION_DOT":5.0e-8,"MEAN_MOTION_DDOT":0},{"OBJECT_NAME":"ONEWEB-0444","OBJECT_ID":"2022-012S","EPOCH":"2026-01-13T03:59:56.223744","MEAN_MOTION":13.1037242,"ECCENTRICITY":0.0001793,"INCLINATION":87.8776,"RA_OF_ASC_NODE":67.1739,"ARG_OF_PERICENTER":98.3049,"MEAN_ANOMALY":261.8281,"EPHEMERIS_TYPE":0,"CLASSIFICATION_TYPE":"U","NORAD_CAT_ID":51638,"ELEMENT_SET_NO":999,"REV_AT_EPOCH":18903,"BSTAR":-0.0018708345,"MEAN_MOTION_DOT":-6.4e-6,"MEAN_MOTION_DDOT":0},{"OBJECT_NAME":"ONEWEB-0445","OBJECT_ID":"2022-012T","EPOCH":"2026-01-13T04:31:00.826464","MEAN_MOTION":13.10375127,"ECCENTRICITY":0.00018265,"INCLINATION":87.8795,"RA_OF_ASC_NODE":67.1419,"ARG_OF_PERICENTER":106.7599,"MEAN_ANOMALY":253.3729,"EPHEMERIS_TYPE":0,"CLASSIFICATION_TYPE":"U","NORAD_CAT_ID":51639,"ELEMENT_SET_NO":999,"REV_AT_EPOCH":18904,"BSTAR":-0.00034793701,"MEAN_MOTION_DOT":-1.09e-6,"MEAN_MOTION_DDOT":0},{"OBJECT_NAME":"ONEWEB-0446","OBJECT_ID":"2022-012U","EPOCH":"2026-01-13T03:57:32.568192","MEAN_MOTION":13.10371892,"ECCENTRICITY":0.00017734,"INCLINATION":87.8774,"RA_OF_ASC_NODE":67.1907,"ARG_OF_PERICENTER":105.1431,"MEAN_ANOMALY":254.9893,"EPHEMERIS_TYPE":0,"CLASSIFICATION_TYPE":"U","NORAD_CAT_ID":51640,"ELEMENT_SET_NO":999,"REV_AT_EPOCH":18902,"BSTAR":-0.0015379481,"MEAN_MOTION_DOT":-5.24e-6,"MEAN_MOTION_DDOT":0},{"OBJECT_NAME":"ONEWEB-0448","OBJECT_ID":"2022-012V","EPOCH":"2026-01-13T04:04:42.672576","MEAN_MOTION":13.10372557,"ECCENTRICITY":0.00017884,"INCLINATION":87.8774,"RA_OF_ASC_NODE":67.1888,"ARG_OF_PERICENTER":99.0117,"MEAN_ANOMALY":261.1213,"EPHEMERIS_TYPE":0,"CLASSIFICATION_TYPE":"U","NORAD_CAT_ID":51641,"ELEMENT_SET_NO":999,"REV_AT_EPOCH":18899,"BSTAR":-0.0016000979,"MEAN_MOTION_DOT":-5.46e-6,"MEAN_MOTION_DDOT":0},{"OBJECT_NAME":"ONEWEB-0449","OBJECT_ID":"2022-012W","EPOCH":"2026-01-13T04:11:53.342880","MEAN_MOTION":13.10374098,"ECCENTRICITY":0.00023016,"INCLINATION":87.8783,"RA_OF_ASC_NODE":67.1619,"ARG_OF_PERICENTER":98.9092,"MEAN_ANOMALY":261.2296,"EPHEMERIS_TYPE":0,"CLASSIFICATION_TYPE":"U","NORAD_CAT_ID":51642,"ELEMENT_SET_NO":999,"REV_AT_EPOCH":18900,"BSTAR":-0.0017367302,"MEAN_MOTION_DOT":-5.94e-6,"MEAN_MOTION_DDOT":0},{"OBJECT_NAME":"ONEWEB-0451","OBJECT_ID":"2022-012X","EPOCH":"2026-01-13T03:31:57.501120","MEAN_MOTION":13.17650054,"ECCENTRICITY":0.00019004,"INCLINATION":87.9094,"RA_OF_ASC_NODE":36.6477,"ARG_OF_PERICENTER":92.5235,"MEAN_ANOMALY":267.6114,"EPHEMERIS_TYPE":0,"CLASSIFICATION_TYPE":"U","NORAD_CAT_ID":51643,"ELEMENT_SET_NO":999,"REV_AT_EPOCH":19324,"BSTAR":-0.00014439327,"MEAN_MOTION_DOT":-4.3e-7,"MEAN_MOTION_DDOT":0},{"OBJECT_NAME":"ONEWEB-0452","OBJECT_ID":"2022-012Y","EPOCH":"2026-01-13T03:29:31.824672","MEAN_MOTION":13.17644704,"ECCENTRICITY":0.00020778,"INCLINATION":87.9082,"RA_OF_ASC_NODE":36.6998,"ARG_OF_PERICENTER":88.1619,"MEAN_ANOMALY":271.975,"EPHEMERIS_TYPE":0,"CLASSIFICATION_TYPE":"U","NORAD_CAT_ID":51644,"ELEMENT_SET_NO":999,"REV_AT_EPOCH":19325,"BSTAR":0.0024256587,"MEAN_MOTION_DOT":9.55e-6,"MEAN_MOTION_DDOT":0},{"OBJECT_NAME":"ONEWEB-0456","OBJECT_ID":"2022-012AA","EPOCH":"2026-01-13T04:26:14.111520","MEAN_MOTION":13.10376007,"ECCENTRICITY":0.00016294,"INCLINATION":87.8795,"RA_OF_ASC_NODE":67.1327,"ARG_OF_PERICENTER":95.9401,"MEAN_ANOMALY":264.1912,"EPHEMERIS_TYPE":0,"CLASSIFICATION_TYPE":"U","NORAD_CAT_ID":51646,"ELEMENT_SET_NO":999,"REV_AT_EPOCH":18904,"BSTAR":-0.00086459533,"MEAN_MOTION_DOT":-2.89e-6,"MEAN_MOTION_DDOT":0}]
